NORAD_CAT_ID,OBJECT_NAME,OBJECT_TYPE,EPOCH,MEAN_MOTION,ECCENTRICITY,INCLINATION,RA_OF_ASC_NODE,ARG_OF_PERICENTER,MEAN_ANOMALY,BSTAR,MEAN_MOTION_DOT,MEAN_MOTION_DDOT,TLE_LINE0,TLE_LINE1,TLE_LINE2,SEMIMAJOR_AXIS,PERIOD,APOGEE,PERIGEE,DECAYED
51125.0,STARLINK-3387,PAYLOAD,2024-07-25 00:49:35,15.08849146,0.0001063,53.2168,79.6628,99.242,260.8693,8.9916e-05,1.144e-05,0.0,0 STARLINK-3387,1 51125U 22005X   24207.03444395  .00001144  00000-0  89916-4 0  9997,2 51125  53.2168  79.6628 0001063  99.2420 260.8693 15.08849146140370,6917.852,95.437,540.453,538.982,0.0
51125.0,STARLINK-3387,PAYLOAD,2024-07-25 23:04:59,15.08839895,0.0001477,53.2171,75.4942,162.9505,197.1537,0.0001408,1.954e-05,0.0,0 STARLINK-3387,1 51125U 22005X   24207.96180456  .00001954  00000-0  14080-3 0  9992,2 51125  53.2171  75.4942 0001477 162.9505 197.1537 15.08839895140513,6917.881,95.438,540.767,538.724,0.0
51125.0,STARLINK-3387,PAYLOAD,2024-07-26 08:37:18,15.08843367,0.0001038,53.2157,73.7168,95.6316,264.4794,0.00014058,1.95e-05,0.0,0 STARLINK-3387,1 51125U 22005X   24208.35924727  .00001950  00000-0  14058-3 0  9994,2 51125  53.2157  73.7168 0001038  95.6316 264.4794 15.08843367139456,6917.87,95.437,540.453,539.017,0.0
51125.0,STARLINK-3387,PAYLOAD,2024-07-26 21:20:25,15.08833558,0.0001242,53.2163,71.3367,88.2004,271.913,-0.00014747,-2.634e-05,0.0,0 STARLINK-3387,1 51125U 22005X   24208.88918436 -.00002634  00000-0 -14747-3 0  9999,2 51125  53.2163  71.3367 0001242  88.2004 271.9130 15.08833558140659,6917.9,95.438,540.624,538.906,0.0
51125.0,STARLINK-3387,PAYLOAD,2024-07-26 22:55:48,15.08833819,0.000126,53.2182,71.0399,84.3626,275.751,-0.00014425,-2.582e-05,0.0,0 STARLINK-3387,1 51125U 22005X   24208.95542451 -.00002582  00000-0 -14425-3 0  9992,2 51125  53.2182  71.0399 0001260  84.3626 275.7510 15.08833819139549,6917.899,95.438,540.636,538.893,0.0
51125.0,STARLINK-3387,PAYLOAD,2024-07-27 21:11:11,15.08852211,0.0001006,53.2187,66.8767,96.5429,263.5678,-8.6652e-06,-4.26e-06,0.0,0 STARLINK-3387,1 51125U 22005X   24209.88277209 -.00000426  00000-0 -86652-5 0  9999,2 51125  53.2187  66.8767 0001006  96.5429 263.5678 15.08852211139681,6917.843,95.437,540.404,539.012,0.0
51125.0,STARLINK-3387,PAYLOAD,2024-07-27 22:46:34,15.08856394,8.54e-05,53.2182,66.5796,93.8626,266.2464,-4.1857e-05,-9.54e-06,0.0,0 STARLINK-3387,1 51125U 22005X   24209.94901012 -.00000954  00000-0 -41857-4 0  9995,2 51125  53.2182  66.5796 0000854  93.8626 266.2464 15.08856394140810,6917.83,95.437,540.286,539.104,0.0
51125.0,STARLINK-3387,PAYLOAD,2024-07-28 21:01:59,15.08846531,0.0001013,53.2161,62.4186,76.8578,283.2527,0.00027638,4.114e-05,0.0,0 STARLINK-3387,1 51125U 22005X   24210.87637802  .00004114  00000-0  27638-3 0  9992,2 51125  53.2161  62.4186 0001013  76.8578 283.2527 15.08846531140956,6917.86,95.437,540.426,539.025,0.0
51125.0,STARLINK-3387,PAYLOAD,2024-07-29 20:52:45,15.08848429,9.79e-05,53.2165,57.9541,78.651,281.4592,6.7971e-05,7.94e-06,0.0,0 STARLINK-3387,1 51125U 22005X   24211.86997225  .00000794  00000-0  67971-4 0  9995,2 51125  53.2165  57.9541 0000979  78.6510 281.4592 15.08848429139981,6917.855,95.437,540.397,539.042,0.0
51125.0,STARLINK-3387,PAYLOAD,2024-07-30 06:25:03,15.08856765,0.0001002,53.2168,56.1699,78.0693,282.0411,0.00018551,2.667e-05,0.0,0 STARLINK-3387,1 51125U 22005X   24212.26740548  .00002667  00000-0  18551-3 0  9994,2 51125  53.2168  56.1699 0001002  78.0693 282.0411 15.08856765141165,6917.829,95.436,540.387,539.001,0.0
51125.0,STARLINK-3387,PAYLOAD,2024-07-30 20:43:32,15.08844077,0.0001112,53.217,53.4956,96.8605,263.2514,4.3631e-05,4.07e-06,0.0,0 STARLINK-3387,1 51125U 22005X   24212.86357033  .00000407  00000-0  43631-4 0  9991,2 51125  53.2170  53.4956 0001112  96.8605 263.2514 15.08844077141255,6917.868,95.437,540.502,538.964,0.0
51125.0,STARLINK-3387,PAYLOAD,2024-07-31 12:37:24,15.0883056,0.0001103,53.2167,50.5208,82.3165,277.7953,-0.00022535,-3.871e-05,0.0,0 STARLINK-3387,1 51125U 22005X   24213.52597425 -.00003871  00000-0 -22535-3 0  9995,2 51125  53.2167  50.5208 0001103  82.3165 277.7953 15.08830560141350,6917.909,95.438,540.537,539.011,0.0
51125.0,STARLINK-3387,PAYLOAD,2024-07-31 20:34:19,15.08835227,0.0001037,53.2173,49.0355,84.8373,275.2737,-9.8603e-05,-1.856e-05,0.0,0 STARLINK-3387,1 51125U 22005X   24213.85717376 -.00001856  00000-0 -98603-4 0  9991,2 51125  53.2173  49.0355 0001037  84.8373 275.2737 15.08835227140286,6917.895,95.438,540.477,539.043,0.0
51125.0,STARLINK-3387,PAYLOAD,2024-08-01 12:28:11,15.08842266,0.000113,53.2178,46.0614,80.6952,279.4167,0.00018173,2.606e-05,0.0,0 STARLINK-3387,1 51125U 22005X   24214.51957253  .00002606  00000-0  18173-3 0  9990,2 51125  53.2178  46.0614 0001130  80.6952 279.4167 15.08842266141507,6917.873,95.437,540.52,538.957,0.0
51125.0,STARLINK-3387,PAYLOAD,2024-08-01 20:25:06,15.08852578,0.0001015,53.2163,44.5749,74.8346,285.2759,0.00082947,0.00012942,0.0,0 STARLINK-3387,1 51125U 22005X   24214.85077184  .00012942  00000-0  82947-3 0  9997,2 51125  53.2163  44.5749 0001015  74.8346 285.2759 15.08852578140437,6917.842,95.437,540.409,539.005,0.0
51125.0,STARLINK-3387,PAYLOAD,2024-08-02 12:18:58,15.08846767,0.0002748,53.2158,41.601,79.2748,280.8553,0.00029347,4.386e-05,0.0,0 STARLINK-3387,1 51125U 22005X   24215.51317521  .00004386  00000-0  29347-3 0  9991,2 51125  53.2158  41.6010 0002748  79.2748 280.8553 15.08846767141650,6917.86,95.437,541.626,537.824,0.0
51125.0,STARLINK-3387,PAYLOAD,2024-08-02 18:40:30,15.08832009,0.000112,53.2152,40.4111,82.1409,277.971,-5.5301e-05,-1.168e-05,0.0,0 STARLINK-3387,1 51125U 22005X   24215.77813445 -.00001168  00000-0 -55301-4 0  9992,2 51125  53.2152  40.4111 0001120  82.1409 277.9710 15.08832009141693,6917.905,95.438,540.545,538.995,0.0
51125.0,STARLINK-3387,PAYLOAD,2024-08-02 21:51:17,15.08836674,0.0001193,53.2156,39.816,84.2751,275.8377,0.00039274,5.968e-05,0.0,0 STARLINK-3387,1 51125U 22005X   24215.91061561  .00005968  00000-0  39274-3 0  9992,2 51125  53.2156  39.8160 0001193  84.2751 275.8377 15.08836674140592,6917.891,95.438,540.581,538.93,0.0
51125.0,STARLINK-3387,PAYLOAD,2024-08-03 21:42:04,15.08858345,0.0001264,53.2164,35.3543,90.0449,270.0688,0.0012037,0.0001893,0.0,0 STARLINK-3387,1 51125U 22005X   24216.90421786  .00018930  00000-0  12037-2 0  9991,2 51125  53.2164  35.3543 0001264  90.0449 270.0688 15.08858345140743,6917.824,95.436,540.564,538.815,0.0
51125.0,STARLINK-3387,PAYLOAD,2024-08-04 15:11:18,15.08852507,0.00011,53.2166,32.0781,83.6897,276.422,0.00055089,8.493e-05,0.0,0 STARLINK-3387,1 51125U 22005X   24217.63285632  .00008493  00000-0  55089-3 0  9998,2 51125  53.2166  32.0781 0001100  83.6897 276.4220 15.08852507140855,6917.842,95.437,540.468,538.946,0.0
51125.0,STARLINK-3387,PAYLOAD,2024-08-04 18:22:05,15.08847626,0.0001222,53.2168,31.4867,92.297,267.8162,0.00030987,4.648e-05,0.0,0 STARLINK-3387,1 51125U 22005X   24217.76533665  .00004648  00000-0  30987-3 0  9992,2 51125  53.2168  31.4867 0001222  92.2970 267.8162 15.08847626141999,6917.857,95.437,540.567,538.877,0.0
51125.0,STARLINK-3387,PAYLOAD,2024-08-04 21:32:51,15.08854229,0.0001217,53.2168,30.8919,92.1594,267.9537,0.00044361,6.782e-05,0.0,0 STARLINK-3387,1 51125U 22005X   24217.89781456  .00006782  00000-0  44361-3 0  9991,2 51125  53.2168  30.8919 0001217  92.1594 267.9537 15.08854229140897,6917.837,95.437,540.544,538.86,0.0
51125.0,STARLINK-3387,PAYLOAD,2024-08-05 18:12:52,15.08838128,0.0001243,53.2169,27.025,80.4763,279.6369,-2.6286e-05,-7.06e-06,0.0,0 STARLINK-3387,1 51125U 22005X   24218.75893997 -.00000706  00000-0 -26286-4 0  9990,2 51125  53.2169  27.0250 0001243  80.4763 279.6369 15.08838128142144,6917.886,95.438,540.611,538.891,0.0
51125.0,STARLINK-3387,PAYLOAD,2024-08-06 03:45:10,15.08846034,0.0001313,53.2172,25.2405,82.1839,277.9303,7.3931e-05,8.89e-06,0.0,0 STARLINK-3387,1 51125U 22005X   24219.15637453  .00000889  00000-0  73931-4 0  9997,2 51125  53.2172  25.2405 0001313  82.1839 277.9303 15.08846034142202,6917.862,95.437,540.635,538.819,0.0
51125.0,STARLINK-3387,PAYLOAD,2024-08-06 18:03:39,15.08831992,0.0001373,53.2178,22.5717,107.076,253.0383,-6.1521e-05,-1.267e-05,0.0,0 STARLINK-3387,1 51125U 22005X   24219.75254535 -.00001267  00000-0 -61521-4 0  9994,2 51125  53.2178  22.5717 0001373 107.0760 253.0383 15.08831992142299,6917.905,95.438,540.72,538.82,0.0
51125.0,STARLINK-3387,PAYLOAD,2024-08-07 17:54:26,15.0884366,0.0001264,53.2174,18.1083,91.3952,268.7185,0.00020274,2.941e-05,0.0,0 STARLINK-3387,1 51125U 22005X   24220.74614239  .00002941  00000-0  20274-3 0  9993,2 51125  53.2174  18.1083 0001264  91.3952 268.7185 15.08843660142444,6917.869,95.437,540.609,538.86,0.0
51125.0,STARLINK-3387,PAYLOAD,2024-08-08 16:09:50,15.08842374,0.0001248,53.2174,13.9456,92.8797,267.2338,0.00023879,3.515e-05,0.0,0 STARLINK-3387,1 51125U 22005X   24221.67350426  .00003515  00000-0  23879-3 0  9993,2 51125  53.2174  13.9456 0001248  92.8797 267.2338 15.08842374142586,6917.873,95.437,540.601,538.875,0.0
51125.0,STARLINK-3387,PAYLOAD,2024-08-09 09:39:05,15.08846928,0.0001409,53.2167,10.6789,68.5237,291.5905,3.4958e-05,2.69e-06,0.0,0 STARLINK-3387,1 51125U 22005X   24222.40214340  .00000269  00000-0  34958-4 0  9993,2 51125  53.2167  10.6789 0001409  68.5237 291.5905 15.08846928141576,6917.859,95.437,540.699,538.749,0.0
51125.0,STARLINK-3387,PAYLOAD,2024-08-09 16:00:37,15.08842055,0.0001161,53.2163,9.4851,96.7605,263.352,-3.7283e-05,-8.81e-06,0.0,0 STARLINK-3387,1 51125U 22005X   24222.66710366 -.00000881  00000-0 -37283-4 0  9996,2 51125  53.2163   9.4851 0001161  96.7605 263.3520 15.08842055142731,6917.874,95.437,540.542,538.936,0.0
51125.0,STARLINK-3387,PAYLOAD,2024-08-10 14:16:01,15.08845372,0.00015,53.2179,5.3215,103.8433,256.2726,0.00019605,2.834e-05,0.0,0 STARLINK-3387,1 51125U 22005X   24223.59446192  .00002834  00000-0  19605-3 0  9997,2 51125  53.2179   5.3215 0001500 103.8433 256.2726 15.08845372141758,6917.864,95.437,540.767,538.691,0.0
